{
  "type": "FeatureCollection",
  "features": [
    {
      "type": "Feature",
      "properties": {
        "norad_id": 34492,
        "name": "IRIDIUM 33 DEB",
        "group": "iridium-33-debris",
        "lat": 14.500551551961511,
        "lon": -28.890850746603043,
        "alt_km": 940.680556015137,
        "timestamp": "2025-12-23T16:57:12.739179+00:00",
        "meta_object_name": "IRIDIUM 33 DEB",
        "meta_object_id": "1997-051GH",
        "meta_epoch": "2025-12-22T16:27:23.909760",
        "meta_mean_motion": 14.25892201,
        "meta_eccentricity": 0.01887746,
        "meta_inclination": 86.4712,
        "meta_ra_of_asc_node": 330.6072,
        "meta_arg_of_pericenter": 205.8586,
        "meta_mean_anomaly": 332.2477,
        "meta_ephemeris_type": 0,
        "meta_classification_type": "U",
        "meta_norad_cat_id": 34492,
        "meta_element_set_no": 999,
        "meta_rev_at_epoch": 85200,
        "meta_bstar": 0.0029608099,
        "meta_mean_motion_dot": 8.523e-05,
        "meta_mean_motion_ddot": 0,
        "tle_line1": "1 34492U 97051GH  25356.68569340  .00008523  00000+0  29608-2 0  9990",
        "tle_line2": "2 34492  86.4712 330.6072 0188774 205.8586 332.2477 14.25892201852009"
      },
      "geometry": {
        "type": "Point",
        "coordinates": [
          -28.890850746603043,
          14.500551551961511
        ]
      }
    },
    {
      "type": "Feature",
      "properties": {
        "norad_id": 34497,
        "name": "IRIDIUM 33 DEB",
        "group": "iridium-33-debris",
        "lat": -42.26586889594474,
        "lon": 44.32371136686367,
        "alt_km": 752.4550432429232,
        "timestamp": "2025-12-23T16:57:12.739199+00:00",
        "meta_object_name": "IRIDIUM 33 DEB",
        "meta_object_id": "1997-051GN",
        "meta_epoch": "2025-12-22T21:33:03.136608",
        "meta_mean_motion": 14.27482363,
        "meta_eccentricity": 0.00780484,
        "meta_inclination": 86.2769,
        "meta_ra_of_asc_node": 48.0617,
        "meta_arg_of_pericenter": 306.2683,
        "meta_mean_anomaly": 179.2919,
        "meta_ephemeris_type": 0,
        "meta_classification_type": "U",
        "meta_norad_cat_id": 34497,
        "meta_element_set_no": 999,
        "meta_rev_at_epoch": 87028,
        "meta_bstar": 0.00056228088,
        "meta_mean_motion_dot": 1.443e-05,
        "meta_mean_motion_ddot": 0,
        "tle_line1": "1 34497U 97051GN  25356.89795297  .00001443  00000+0  56228-3 0  9993",
        "tle_line2": "2 34497  86.2769  48.0617 0078048 306.2683 179.2919 14.27482363870281"
      },
      "geometry": {
        "type": "Point",
        "coordinates": [
          44.32371136686367,
          -42.26586889594474
        ]
      }
    },
    {
      "type": "Feature",
      "properties": {
        "norad_id": 34508,
        "name": "IRIDIUM 33 DEB",
        "group": "iridium-33-debris",
        "lat": -9.81450969823028,
        "lon": -81.37655737351285,
        "alt_km": 738.2174012077649,
        "timestamp": "2025-12-23T16:57:12.739215+00:00",
        "meta_object_name": "IRIDIUM 33 DEB",
        "meta_object_id": "1997-051GZ",
        "meta_epoch": "2025-12-22T06:41:24.031968",
        "meta_mean_motion": 14.38495257,
        "meta_eccentricity": 0.00666176,
        "meta_inclination": 86.3708,
        "meta_ra_of_asc_node": 98.5996,
        "meta_arg_of_pericenter": 142.363,
        "meta_mean_anomaly": 218.2258,
        "meta_ephemeris_type": 0,
        "meta_classification_type": "U",
        "meta_norad_cat_id": 34508,
        "meta_element_set_no": 999,
        "meta_rev_at_epoch": 87446,
        "meta_bstar": 0.0011650926,
        "meta_mean_motion_dot": 3.671e-05,
        "meta_mean_motion_ddot": 0,
        "tle_line1": "1 34508U 97051GZ  25356.27875037  .00003671  00000+0  11651-2 0  9994",
        "tle_line2": "2 34508  86.3708  98.5996 0066617 142.3630 218.2258 14.38495257874460"
      },
      "geometry": {
        "type": "Point",
        "coordinates": [
          -81.37655737351285,
          -9.81450969823028
        ]
      }
    },
    {
      "type": "Feature",
      "properties": {
        "norad_id": 34521,
        "name": "IRIDIUM 33 DEB",
        "group": "iridium-33-debris",
        "lat": -86.3713154255299,
        "lon": -61.36399843506718,
        "alt_km": 689.8510227589495,
        "timestamp": "2025-12-23T16:57:12.739227+00:00",
        "meta_object_name": "IRIDIUM 33 DEB",
        "meta_object_id": "1997-051HN",
        "meta_epoch": "2025-12-23T00:57:12.292704",
        "meta_mean_motion": 14.63446823,
        "meta_eccentricity": 0.00028679,
        "meta_inclination": 86.3784,
        "meta_ra_of_asc_node": 26.0126,
        "meta_arg_of_pericenter": 172.6543,
        "meta_mean_anomaly": 187.4712,
        "meta_ephemeris_type": 0,
        "meta_classification_type": "U",
        "meta_norad_cat_id": 34521,
        "meta_element_set_no": 999,
        "meta_rev_at_epoch": 88623,
        "meta_bstar": 0.00088486423,
        "meta_mean_motion_dot": 4.6e-05,
        "meta_mean_motion_ddot": 0,
        "tle_line1": "1 34521U 97051HN  25357.03972561  .00004600  00000+0  88486-3 0  9998",
        "tle_line2": "2 34521  86.3784  26.0126 0002867 172.6543 187.4712 14.63446823886239"
      },
      "geometry": {
        "type": "Point",
        "coordinates": [
          -61.36399843506718,
          -86.3713154255299
        ]
      }
    },
    {
      "type": "Feature",
      "properties": {
        "norad_id": 34525,
        "name": "IRIDIUM 33 DEB",
        "group": "iridium-33-debris",
        "lat": 1.1510915268734727,
        "lon": 42.23554779308647,
        "alt_km": 750.0476026107845,
        "timestamp": "2025-12-23T16:57:12.739237+00:00",
        "meta_object_name": "IRIDIUM 33 DEB",
        "meta_object_id": "1997-051HS",
        "meta_epoch": "2025-12-23T02:06:13.696992",
        "meta_mean_motion": 14.42929063,
        "meta_eccentricity": 0.00063437,
        "meta_inclination": 86.3718,
        "meta_ra_of_asc_node": 42.4266,
        "meta_arg_of_pericenter": 71.3157,
        "meta_mean_anomaly": 318.0037,
        "meta_ephemeris_type": 0,
        "meta_classification_type": "U",
        "meta_norad_cat_id": 34525,
        "meta_element_set_no": 999,
        "meta_rev_at_epoch": 88237,
        "meta_bstar": 0.00032314347,
        "meta_mean_motion_dot": 1.1e-05,
        "meta_mean_motion_ddot": 0,
        "tle_line1": "1 34525U 97051HS  25357.08765853  .00001100  00000+0  32314-3 0  9992",
        "tle_line2": "2 34525  86.3718  42.4266 0006343  71.3157 318.0037 14.42929063882378"
      },
      "geometry": {
        "type": "Point",
        "coordinates": [
          42.23554779308647,
          1.1510915268734727
        ]
      }
    },
    {
      "type": "Feature",
      "properties": {
        "norad_id": 34529,
        "name": "IRIDIUM 33 DEB",
        "group": "iridium-33-debris",
        "lat": 14.300293430789775,
        "lon": -150.19250701289224,
        "alt_km": 753.4631966780908,
        "timestamp": "2025-12-23T16:57:12.739248+00:00",
        "meta_object_name": "IRIDIUM 33 DEB",
        "meta_object_id": "1997-051HW",
        "meta_epoch": "2025-12-23T02:51:06.200064",
        "meta_mean_motion": 14.4062395,
        "meta_eccentricity": 0.00059739,
        "meta_inclination": 86.3631,
        "meta_ra_of_asc_node": 30.9869,
        "meta_arg_of_pericenter": 147.143,
        "meta_mean_anomaly": 213.0142,
        "meta_ephemeris_type": 0,
        "meta_classification_type": "U",
        "meta_norad_cat_id": 34529,
        "meta_element_set_no": 999,
        "meta_rev_at_epoch": 88291,
        "meta_bstar": 0.0001168988,
        "meta_mean_motion_dot": 3.93e-06,
        "meta_mean_motion_ddot": 0,
        "tle_line1": "1 34529U 97051HW  25357.11882176  .00000393  00000+0  11690-3 0  9995",
        "tle_line2": "2 34529  86.3631  30.9869 0005973 147.1430 213.0142 14.40623950882916"
      },
      "geometry": {
        "type": "Point",
        "coordinates": [
          -150.19250701289224,
          14.300293430789775
        ]
      }
    },
    {
      "type": "Feature",
      "properties": {
        "norad_id": 34538,
        "name": "IRIDIUM 33 DEB",
        "group": "iridium-33-debris",
        "lat": 82.92276810618463,
        "lon": 32.389799538880844,
        "alt_km": 762.6252655005137,
        "timestamp": "2025-12-23T16:57:12.739258+00:00",
        "meta_object_name": "IRIDIUM 33 DEB",
        "meta_object_id": "1997-051JF",
        "meta_epoch": "2025-12-23T00:03:15.777216",
        "meta_mean_motion": 14.42704498,
        "meta_eccentricity": 0.00319962,
        "meta_inclination": 86.2763,
        "meta_ra_of_asc_node": 1.06,
        "meta_arg_of_pericenter": 292.4528,
        "meta_mean_anomaly": 96.6233,
        "meta_ephemeris_type": 0,
        "meta_classification_type": "U",
        "meta_norad_cat_id": 34538,
        "meta_element_set_no": 999,
        "meta_rev_at_epoch": 87904,
        "meta_bstar": 0.00088542767,
        "meta_mean_motion_dot": 2.982e-05,
        "meta_mean_motion_ddot": 0,
        "tle_line1": "1 34538U 97051JF  25357.00226594  .00002982  00000+0  88543-3 0  9996",
        "tle_line2": "2 34538  86.2763   1.0600 0031996 292.4528  96.6233 14.42704498879044"
      },
      "geometry": {
        "type": "Point",
        "coordinates": [
          32.389799538880844,
          82.92276810618463
        ]
      }
    }
  ]
}